NORAD_CAT_ID,OBJECT_NAME,OBJECT_TYPE,EPOCH,MEAN_MOTION,ECCENTRICITY,INCLINATION,RA_OF_ASC_NODE,ARG_OF_PERICENTER,MEAN_ANOMALY,BSTAR,MEAN_MOTION_DOT,MEAN_MOTION_DDOT,TLE_LINE0,TLE_LINE1,TLE_LINE2,SEMIMAJOR_AXIS,PERIOD,APOGEE,PERIGEE,DECAYED
53027.0,STARLINK-4158,PAYLOAD,2024-03-18 07:00:08,15.08840111,0.0001547,53.2171,82.5964,101.3601,258.7565,6.765e-05,7.89e-06,0.0,0 STARLINK-4158,1 53027U 22076AT  24078.29176584  .00000789  00000-0  67650-4 0  9999,2 53027  53.2171  82.5964 0001547 101.3601 258.7565 15.08840111 94089,6917.88,95.438,540.815,538.675,0.0
53027.0,STARLINK-4158,PAYLOAD,2024-03-19 06:50:53,15.0886431,0.0001646,53.2173,78.1353,105.5462,254.5712,0.00024249,3.576e-05,0.0,0 STARLINK-4158,1 53027U 22076AT  24079.28534529  .00003576  00000-0  24249-3 0  9999,2 53027  53.2173  78.1353 0001646 105.5462 254.5712 15.08864310 94709,6917.806,95.436,540.81,538.532,0.0
53027.0,STARLINK-4158,PAYLOAD,2024-03-20 08:17:05,15.08833011,0.0001574,53.2167,73.3787,78.7206,281.3963,-0.0001567,-2.781e-05,0.0,0 STARLINK-4158,1 53027U 22076AT  24080.34520161 -.00002781  00000-0 -15670-3 0  9992,2 53027  53.2167  73.3787 0001574  78.7206 281.3963 15.08833011 94864,6917.902,95.438,540.856,538.678,0.0
53027.0,STARLINK-4158,PAYLOAD,2024-03-21 09:43:16,15.08843322,0.0001598,53.2175,68.6168,87.7839,272.3336,-0.00014274,-2.559e-05,0.0,0 STARLINK-4158,1 53027U 22076AT  24081.40504851 -.00002559  00000-0 -14274-3 0  9990,2 53027  53.2175  68.6168 0001598  87.7839 272.3336 15.08843322 95020,6917.87,95.437,540.841,538.63,0.0
53027.0,STARLINK-4158,PAYLOAD,2024-03-22 07:58:39,15.08846096,0.000176,53.2176,64.4567,81.6102,278.509,0.00042328,6.456e-05,0.0,0 STARLINK-4158,1 53027U 22076AT  24082.33240621  .00006456  00000-0  42328-3 0  9994,2 53027  53.2176  64.4567 0001760  81.6102 278.5090 15.08846096 94693,6917.862,95.437,540.944,538.509,0.0
53027.0,STARLINK-4158,PAYLOAD,2024-03-23 04:38:41,15.08831924,0.000209,53.2185,60.5799,133.7873,226.3293,5.8852e-06,-1.95e-06,0.0,0 STARLINK-4158,1 53027U 22076AT  24083.19353095 -.00000195  00000-0  58852-5 0  9995,2 53027  53.2185  60.5799 0002090 133.7873 226.3293 15.08831924 95295,6917.905,95.438,541.216,538.324,0.0
53027.0,STARLINK-4158,PAYLOAD,2024-03-23 07:49:28,15.08830234,0.000159,53.2169,59.9963,96.9722,263.1451,2.5528e-05,1.18e-06,0.0,0 STARLINK-4158,1 53027U 22076AT  24083.32601862  .00000118  00000-0  25528-4 0  9995,2 53027  53.2169  59.9963 0001590  96.9722 263.1451 15.08830234 94847,6917.91,95.438,540.875,538.675,0.0
53027.0,STARLINK-4158,PAYLOAD,2024-03-24 04:29:28,15.08855137,0.0001566,53.2161,56.1332,108.0169,252.0994,0.0008476,0.00013233,0.0,0 STARLINK-4158,1 53027U 22076AT  24084.18713342  .00013233  00000-0  84760-3 0  9991,2 53027  53.2161  56.1332 0001566 108.0169 252.0994 15.08855137 95446,6917.834,95.437,540.782,538.616,0.0
53027.0,STARLINK-4158,PAYLOAD,2024-03-24 07:40:14,15.08867145,0.000155,53.2161,55.536,109.1623,250.9537,0.0011918,0.00018744,0.0,0 STARLINK-4158,1 53027U 22076AT  24084.31961050  .00018744  00000-0  11918-2 0  9993,2 53027  53.2161  55.5360 0001550 109.1623 250.9537 15.08867145 94991,6917.797,95.436,540.735,538.59,0.0
53027.0,STARLINK-4158,PAYLOAD,2024-03-25 04:20:15,15.08834739,0.0001411,53.217,51.67,98.2889,261.8263,-0.00017118,-3.011e-05,0.0,0 STARLINK-4158,1 53027U 22076AT  24085.18073200 -.00003011  00000-0 -17118-3 0  9992,2 53027  53.2170  51.6700 0001411  98.2889 261.8263 15.08834739 95591,6917.896,95.438,540.738,538.785,0.0
53027.0,STARLINK-4158,PAYLOAD,2024-03-25 07:31:01,15.08841958,0.0001379,53.2172,51.0749,95.3843,264.7307,0.00044012,6.724e-05,0.0,0 STARLINK-4158,1 53027U 22076AT  24085.31321206  .00006724  00000-0  44012-3 0  9994,2 53027  53.2172  51.0749 0001379  95.3843 264.7307 15.08841958 95616,6917.874,95.437,540.693,538.785,0.0
53027.0,STARLINK-4158,PAYLOAD,2024-03-26 04:11:03,15.08822687,0.0001328,53.218,47.2072,92.7586,267.3558,0.00054066,8.323e-05,0.0,0 STARLINK-4158,1 53027U 22076AT  24086.17435055  .00008323  00000-0  54066-3 0  9994,2 53027  53.2180  47.2072 0001328  92.7586 267.3558 15.08822687 95749,6917.933,95.439,540.717,538.88,0.0
53027.0,STARLINK-4158,PAYLOAD,2024-03-27 04:01:50,15.08854033,0.0001224,53.2181,42.752,104.0237,256.0891,0.00085539,0.00013357,0.0,0 STARLINK-4158,1 53027U 22076AT  24087.16794819  .00013357  00000-0  85539-3 0  9992,2 53027  53.2181  42.7520 0001224 104.0237 256.0891 15.08854033 95894,6917.837,95.437,540.549,538.856,0.0
53027.0,STARLINK-4158,PAYLOAD,2024-03-27 13:34:08,15.08877713,0.000129,53.2191,40.9683,104.6816,255.4319,0.0010906,0.00017129,0.0,0 STARLINK-4158,1 53027U 22076AT  24087.56537798  .00017129  00000-0  10906-2 0  9993,2 53027  53.2191  40.9683 0001290 104.6816 255.4319 15.08877713 95952,6917.765,95.435,540.523,538.738,0.0
53027.0,STARLINK-4158,PAYLOAD,2024-03-27 21:31:04,15.08840711,0.0001212,53.2185,39.4805,98.1369,261.976,-0.00039681,-6.598e-05,0.0,0 STARLINK-4158,1 53027U 22076AT  24087.89658106 -.00006598  00000-0 -39681-3 0  9998,2 53027  53.2185  39.4805 0001212  98.1369 261.9760 15.08840711 96005,6917.878,95.438,540.582,538.905,0.0
53027.0,STARLINK-4158,PAYLOAD,2024-03-28 03:52:37,15.08851052,0.0001427,53.2188,38.2941,105.4979,254.6171,0.0002044,2.968e-05,0.0,0 STARLINK-4158,1 53027U 22076AT  24088.16153953  .00002968  00000-0  20440-3 0  9997,2 53027  53.2188  38.2941 0001427 105.4979 254.6171 15.08851052 96042,6917.847,95.437,540.699,538.724,0.0
53027.0,STARLINK-4158,PAYLOAD,2024-03-28 13:24:55,15.08866101,0.0001324,53.2187,36.5088,87.3551,272.7593,0.0014882,0.00023493,0.0,0 STARLINK-4158,1 53027U 22076AT  24088.55897691  .00023493  00000-0  14882-2 0  9992,2 53027  53.2187  36.5088 0001324  87.3551 272.7593 15.08866101 96101,6917.801,95.436,540.582,538.75,0.0
53027.0,STARLINK-4158,PAYLOAD,2024-03-29 03:43:24,15.08838212,0.0001389,53.2183,33.8303,78.4161,281.6987,0.0013722,0.00021617,0.0,0 STARLINK-4158,1 53027U 22076AT  24089.15514223  .00021617  00000-0  13722-2 0  9994,2 53027  53.2183  33.8303 0001389  78.4161 281.6987 15.08838212 96193,6917.886,95.438,540.712,538.79,0.0
53027.0,STARLINK-4158,PAYLOAD,2024-03-29 13:15:42,15.08855334,0.0001489,53.2189,32.0478,90.4454,269.6709,0.001511,0.00023851,0.0,0 STARLINK-4158,1 53027U 22076AT  24089.55258076  .00023851  00000-0  15110-2 0  9994,2 53027  53.2189  32.0478 0001489  90.4454 269.6709 15.08855334 95789,6917.834,95.437,540.729,538.668,0.0
53027.0,STARLINK-4158,PAYLOAD,2024-03-30 05:09:34,15.08846542,0.0001335,53.2177,29.0741,99.0755,261.0389,0.0014278,0.00022512,0.0,0 STARLINK-4158,1 53027U 22076AT  24090.21498215  .00022512  00000-0  14278-2 0  9997,2 53027  53.2177  29.0741 0001335  99.0755 261.0389 15.08846542 96359,6917.86,95.437,540.649,538.802,0.0
53027.0,STARLINK-4158,PAYLOAD,2024-03-30 13:06:29,15.08864079,0.0001338,53.218,27.5823,99.58,260.5343,0.0016105,0.00025453,0.0,0 STARLINK-4158,1 53027U 22076AT  24090.54617822  .00025453  00000-0  16105-2 0  9998,2 53027  53.2180  27.5823 0001338  99.5800 260.5343 15.08864079 95938,6917.807,95.436,540.597,538.746,0.0
53027.0,STARLINK-4158,PAYLOAD,2024-03-31 05:00:21,15.08845422,0.0001423,53.2178,24.6122,106.0082,254.1067,0.001041,0.00016321,0.0,0 STARLINK-4158,1 53027U 22076AT  24091.20858469  .00016321  00000-0  10410-2 0  9993,2 53027  53.2178  24.6122 0001423 106.0082 254.1067 15.08845422 96503,6917.864,95.437,540.713,538.744,0.0
53027.0,STARLINK-4158,PAYLOAD,2024-03-31 12:57:17,15.08852474,0.0001375,53.218,23.1253,100.6353,259.4795,0.0011365,0.00017852,0.0,0 STARLINK-4158,1 53027U 22076AT  24091.53978331  .00017852  00000-0  11365-2 0  9990,2 53027  53.2180  23.1253 0001375 100.6353 259.4795 15.08852474 96086,6917.842,95.437,540.658,538.756,0.0
53027.0,STARLINK-4158,PAYLOAD,2024-04-01 04:51:09,15.08831099,0.0001132,53.2191,20.1532,82.384,277.7281,0.0011007,0.00017269,0.0,0 STARLINK-4158,1 53027U 22076AT  24092.20219090  .00017269  00000-0  11007-2 0  9990,2 53027  53.2191  20.1532 0001132  82.3840 277.7281 15.08831099 96659,6917.908,95.438,540.556,538.989,0.0
53027.0,STARLINK-4158,PAYLOAD,2024-04-01 12:48:04,15.08847786,0.0001194,53.2181,18.6668,87.3936,272.7192,0.00099891,0.00015649,0.0,0 STARLINK-4158,1 53027U 22076AT  24092.53339011  .00015649  00000-0  99891-3 0  9990,2 53027  53.2181  18.6668 0001194  87.3936 272.7192 15.08847786 96239,6917.857,95.437,540.548,538.896,0.0
53027.0,STARLINK-4158,PAYLOAD,2024-04-02 04:41:56,15.08859739,0.0001543,53.2193,15.6929,96.8527,263.2641,0.001044,0.00016375,0.0,0 STARLINK-4158,1 53027U 22076AT  24093.19578818  .00016375  00000-0  10440-2 0  9992,2 53027  53.2193  15.6929 0001543  96.8527 263.2641 15.08859739 96334,6917.82,95.436,540.752,538.618,0.0
53027.0,STARLINK-4158,PAYLOAD,2024-04-02 19:00:24,15.08851604,0.0001778,53.22,13.0146,106.9235,253.1953,0.00030545,4.578e-05,0.0,0 STARLINK-4158,1 53027U 22076AT  24093.79194650  .00004578  00000-0  30545-3 0  9997,2 53027  53.2200  13.0146 0001778 106.9235 253.1953 15.08851604 96893,6917.845,95.437,540.94,538.48,0.0
53027.0,STARLINK-4158,PAYLOAD,2024-04-03 01:21:57,15.08841496,0.0001296,53.2199,11.828,81.1026,279.0113,9.4676e-05,1.219e-05,0.0,0 STARLINK-4158,1 53027U 22076AT  24094.05691001  .00001219  00000-0  94676-4 0  9994,2 53027  53.2199  11.8280 0001296  81.1026 279.0113 15.08841496 96930,6917.876,95.437,540.637,538.844,0.0
53027.0,STARLINK-4158,PAYLOAD,2024-04-03 10:54:15,15.08846342,0.0001573,53.2202,10.0439,82.5999,277.5172,0.00025122,3.713e-05,0.0,0 STARLINK-4158,1 53027U 22076AT  24094.45434854  .00003713  00000-0  25122-3 0  9999,2 53027  53.2202  10.0439 0001573  82.5999 277.5172 15.08846342 96522,6917.861,95.437,540.814,538.638,0.0
53027.0,STARLINK-4158,PAYLOAD,2024-04-03 18:51:11,15.08842651,0.0001737,53.2205,8.5594,88.0272,272.0919,0.00021122,3.075e-05,0.0,0 STARLINK-4158,1 53027U 22076AT  24094.78555038  .00003075  00000-0  21122-3 0  9990,2 53027  53.2205   8.5594 0001737  88.0272 272.0919 15.08842651 96579,6917.872,95.437,540.939,538.536,0.0
